KUIPER-00061            
1 64521U 25134X   25238.55427972  .00044994  00000+0  12477-2 0  9996
2 64521  51.8748  21.8316 0006221 339.3287  20.7447 15.36472917 11089
KUIPER-00062            
1 64522U 25134Y   25238.58337963 -.00292345  00000+0 -17199-1 0  9992
2 64522  51.8979  24.6351 0008205 355.7431 208.7844 15.12572311  5471
KUIPER-00063            
1 64523U 25134Z   25238.58337963 -.00032253  00000+0 -17434-2 0  9996
2 64523  51.8844  23.6753 0006467 295.5986 333.0405 15.14028619  4385
KUIPER-00064            
1 64524U 25134AA  25238.58337963 -.00032692  00000+0 -13774-2 0  9997
2 64524  51.8889  22.8115 0002509  60.3127 309.6122 15.22657255  5565
KUIPER-00065            
1 64525U 25134AB  25238.58337963 -.00035081  00000+0 -23128-2 0  9997
2 64525  51.9093  25.4301 0008780 349.2501  58.8911 15.06890720  5727
KUIPER-00066            
1 64526U 25134AC  25238.58337963 -.01261801  00000+0 -62976-1 0  9993
2 64526  51.8870  22.9141 0005183 335.3537 305.4212 15.20092912  4641
KUIPER-00069            
1 64816U 25151A   25238.32393001  .00028910  00000+0  80850-3 0  9993
2 64816  51.8786  89.5435 0005423 285.0475  74.9911 15.36427159  7484
KUIPER-00070            
1 64817U 25151B   25238.58337963  .00036340  00000+0  20690-2 0  9998
2 64817  51.8896  91.1907 0006234 308.6296 100.9325 15.12476712  5710
